{"type": "FeatureCollection", "features": [ {"type": "Feature", "properties": {"norad_id": 37048, "name": "FENGYUN 1C DEB", "group": "fengyun-1c-debris", "lat": -54.43525332173008, "lon": -149.92488042670172, "alt_km": 1127.8829504607247, "timestamp": "2025-12-01T03:58:50.103709+00:00", "meta": {"OBJECT_NAME": "FENGYUN 1C DEB", "OBJECT_ID": "1999-025EEG", "EPOCH": "2025-11-29T20:56:06.256896", "MEAN_MOTION": 13.65129029, "ECCENTRICITY": 0.02522628, "INCLINATION": 98.8875, "RA_OF_ASC_NODE": 196.2483, "ARG_OF_PERICENTER": 183.0302, "MEAN_ANOMALY": 245.4375, "EPHEMERIS_TYPE": 0, "CLASSIFICATION_TYPE": "U", "NORAD_CAT_ID": 37048, "ELEMENT_SET_NO": 999, "REV_AT_EPOCH": 61994, "BSTAR": 0.00024877345, "MEAN_MOTION_DOT": 2.12e-06, "MEAN_MOTION_DDOT": 0, "GROUP": "fengyun-1c-debris"}, "tle": {"line1": "1 37048U 99025EEG 25333.87229464  .00000212  00000+0  24877-3 0  9990", "line2": "2 37048  98.8875 196.2483 0252262 183.0302 245.4375 13.65129029619945"}}, "geometry": {"type": "Point", "coordinates": [-149.92488042670172, -54.43525332173008]}}, {"type": "Feature", "properties": {"norad_id": 37054, "name": "FENGYUN 1C DEB", "group": "fengyun-1c-debris", "lat": -36.16717473265136, "lon": 131.71384399995736, "alt_km": 817.8907579528859, "timestamp": "2025-12-01T03:58:50.103719+00:00", "meta": {"OBJECT_NAME": "FENGYUN 1C DEB", "OBJECT_ID": "1999-025EEN", "EPOCH": "2025-11-29T05:17:38.461056", "MEAN_MOTION": 14.19427383, "ECCENTRICITY": 0.01006888, "INCLINATION": 98.5491, "RA_OF_ASC_NODE": 316.1491, "ARG_OF_PERICENTER": 144.0639, "MEAN_ANOMALY": 216.7364, "EPHEMERIS_TYPE": 0, "CLASSIFICATION_TYPE": "U", "NORAD_CAT_ID": 37054, "ELEMENT_SET_NO": 999, "REV_AT_EPOCH": 64237, "BSTAR": 0.00028093156, "MEAN_MOTION_DOT": 5.8e-06, "MEAN_MOTION_DDOT": 0, "GROUP": "fengyun-1c-debris"}, "tle": {"line1": "1 37054U 99025EEN 25333.22058404  .00000580  00000+0  28093-3 0  9992", "line2": "2 37054  98.5491 316.1491 0100688 144.0639 216.7364 14.19427383642375"}}, "geometry": {"type": "Point", "coordinates": [131.71384399995736, -36.16717473265136]}}, {"type": "Feature", "properties": {"norad_id": 37056, "name": "FENGYUN 1C DEB", "group": "fengyun-1c-debris", "lat": -14.783508243323693, "lon": 174.27758474963025, "alt_km": 543.9624515472951, "timestamp": "2025-12-01T03:58:50.103729+00:00", "meta": {"OBJECT_NAME": "FENGYUN 1C DEB", "OBJECT_ID": "1999-025EEQ", "EPOCH": "2025-11-29T19:37:44.694624", "MEAN_MOTION": 14.50377318, "ECCENTRICITY": 0.02683612, "INCLINATION": 98.9848, "RA_OF_ASC_NODE": 355.2313, "ARG_OF_PERICENTER": 184.6816, "MEAN_ANOMALY": 175.1861, "EPHEMERIS_TYPE": 0, "CLASSIFICATION_TYPE": "U", "NORAD_CAT_ID": 37056, "ELEMENT_SET_NO": 999, "REV_AT_EPOCH": 65224, "BSTAR": 0.00029015468, "MEAN_MOTION_DOT": 1.737e-05, "MEAN_MOTION_DDOT": 0, "GROUP": "fengyun-1c-debris"}, "tle": {"line1": "1 37056U 99025EEQ 25333.81787841  .00001737  00000+0  29015-3 0  9993", "line2": "2 37056  98.9848 355.2313 0268361 184.6816 175.1861 14.50377318652248"}}, "geometry": {"type": "Point", "coordinates": [174.27758474963025, -14.783508243323693]}}, {"type": "Feature", "properties": {"norad_id": 37057, "name": "FENGYUN 1C DEB", "group": "fengyun-1c-debris", "lat": 46.555428526325215, "lon": -19.234656870345663, "alt_km": 1014.8626880579859, "timestamp": "2025-12-01T03:58:50.103740+00:00", "meta": {"OBJECT_NAME": "FENGYUN 1C DEB", "OBJECT_ID": "1999-025EER", "EPOCH": "2025-11-29T19:03:44.604864", "MEAN_MOTION": 13.96084171, "ECCENTRICITY": 0.02847546, "INCLINATION": 98.9242, "RA_OF_ASC_NODE": 348.9836, "ARG_OF_PERICENTER": 175.0613, "MEAN_ANOMALY": 185.3468, "EPHEMERIS_TYPE": 0, "CLASSIFICATION_TYPE": "U", "NORAD_CAT_ID": 37057, "ELEMENT_SET_NO": 999, "REV_AT_EPOCH": 63417, "BSTAR": 7.4994396e-05, "MEAN_MOTION_DOT": 1.02e-06, "MEAN_MOTION_DDOT": 0, "GROUP": "fengyun-1c-debris"}, "tle": {"line1": "1 37057U 99025EER 25333.79426626  .00000102  00000+0  74994-4 0  9994", "line2": "2 37057  98.9242 348.9836 0284754 175.0613 185.3468 13.96084171634178"}}, "geometry": {"type": "Point", "coordinates": [-19.234656870345663, 46.555428526325215]}}, {"type": "Feature", "properties": {"norad_id": 37061, "name": "FENGYUN 1C DEB", "group": "fengyun-1c-debris", "lat": -42.162601887503925, "lon": -145.218813517668, "alt_km": 1819.0303855167158, "timestamp": "2025-12-01T03:58:50.103750+00:00", "meta": {"OBJECT_NAME": "FENGYUN 1C DEB", "OBJECT_ID": "1999-025EEV", "EPOCH": "2025-11-28T10:52:42.216960", "MEAN_MOTION": 13.13300787, "ECCENTRICITY": 0.08034364, "INCLINATION": 98.0863, "RA_OF_ASC_NODE": 40.084, "ARG_OF_PERICENTER": 40.9286, "MEAN_ANOMALY": 324.9391, "EPHEMERIS_TYPE": 0, "CLASSIFICATION_TYPE": "U", "NORAD_CAT_ID": 37061, "ELEMENT_SET_NO": 999, "REV_AT_EPOCH": 7968, "BSTAR": 0.0011734574, "MEAN_MOTION_DOT": 2.262e-05, "MEAN_MOTION_DDOT": 0, "GROUP": "fengyun-1c-debris"}, "tle": {"line1": "1 37061U 99025EEV 25332.45326640  .00002262  00000+0  11735-2 0  9997", "line2": "2 37061  98.0863  40.0840 0803436  40.9286 324.9391 13.13300787 79686"}}, "geometry": {"type": "Point", "coordinates": [-145.218813517668, -42.162601887503925]}}, {"type": "Feature", "properties": {"norad_id": 37064, "name": "FENGYUN 1C DEB", "group": "fengyun-1c-debris", "lat": -9.061342645502581, "lon": -54.12722569672213, "alt_km": 797.7996745269766, "timestamp": "2025-12-01T03:58:50.103760+00:00", "meta": {"OBJECT_NAME": "FENGYUN 1C DEB", "OBJECT_ID": "1999-025EEY", "EPOCH": "2025-11-25T16:29:09.460320", "MEAN_MOTION": 14.15612933, "ECCENTRICITY": 0.01070067, "INCLINATION": 98.9095, "RA_OF_ASC_NODE": 121.83, "ARG_OF_PERICENTER": 150.7609, "MEAN_ANOMALY": 209.9612, "EPHEMERIS_TYPE": 0, "CLASSIFICATION_TYPE": "U", "NORAD_CAT_ID": 37064, "ELEMENT_SET_NO": 999, "REV_AT_EPOCH": 81294, "BSTAR": 0.0049331234, "MEAN_MOTION_DOT": 0.00010179, "MEAN_MOTION_DDOT": 0, "GROUP": "fengyun-1c-debris"}, "tle": {"line1": "1 37064U 99025EEY 25329.68691505  .00010179  00000+0  49331-2 0  9995", "line2": "2 37064  98.9095 121.8300 0107006 150.7609 209.9612 14.15612933812947"}}, "geometry": {"type": "Point", "coordinates": [-54.12722569672213, -9.061342645502581]}}, {"type": "Feature", "properties": {"norad_id": 37065, "name": "FENGYUN 1C DEB", "group": "fengyun-1c-debris", "lat": -76.64936297806727, "lon": -129.47904941548174, "alt_km": 825.6730116620229, "timestamp": "2025-12-01T03:58:50.103771+00:00", "meta": {"OBJECT_NAME": "FENGYUN 1C DEB", "OBJECT_ID": "1999-025EEZ", "EPOCH": "2025-11-29T04:41:54.899520", "MEAN_MOTION": 13.59013412, "ECCENTRICITY": 0.0298251, "INCLINATION": 103.2865, "RA_OF_ASC_NODE": 143.2258, "ARG_OF_PERICENTER": 271.3733, "MEAN_ANOMALY": 85.3247, "EPHEMERIS_TYPE": 0, "CLASSIFICATION_TYPE": "U", "NORAD_CAT_ID": 37065, "ELEMENT_SET_NO": 999, "REV_AT_EPOCH": 22018, "BSTAR": 0.0027486644, "MEAN_MOTION_DOT": 2.63e-05, "MEAN_MOTION_DDOT": 0, "GROUP": "fengyun-1c-debris"}, "tle": {"line1": "1 37065U 99025EEZ 25333.19577430  .00002630  00000+0  27487-2 0  9998", "line2": "2 37065 103.2865 143.2258 0298251 271.3733  85.3247 13.59013412220187"}}, "geometry": {"type": "Point", "coordinates": [-129.47904941548174, -76.64936297806727]}}, {"type": "Feature", "properties": {"norad_id": 37067, "name": "FENGYUN 1C DEB", "group": "fengyun-1c-debris", "lat": 12.974385106143384, "lon": 98.44677780872343, "alt_km": 790.6517695349576, "timestamp": "2025-12-01T03:58:50.103782+00:00", "meta": {"OBJECT_NAME": "FENGYUN 1C DEB", "OBJECT_ID": "1999-025EFB", "EPOCH": "2025-11-24T01:23:47.647968", "MEAN_MOTION": 14.00046018, "ECCENTRICITY": 0.01541141, "INCLINATION": 99.5377, "RA_OF_ASC_NODE": 268.8179, "ARG_OF_PERICENTER": 163.5537, "MEAN_ANOMALY": 197.0706, "EPHEMERIS_TYPE": 0, "CLASSIFICATION_TYPE": "U", "NORAD_CAT_ID": 37067, "ELEMENT_SET_NO": 999, "REV_AT_EPOCH": 57147, "BSTAR": 0.0031307845, "MEAN_MOTION_DOT": 5.063e-05, "MEAN_MOTION_DDOT": 0, "GROUP": "fengyun-1c-debris"}, "tle": {"line1": "1 37067U 99025EFB 25328.05819037  .00005063  00000+0  31308-2 0  9991", "line2": "2 37067  99.5377 268.8179 0154114 163.5537 197.0706 14.00046018571470"}}, "geometry": {"type": "Point", "coordinates": [98.44677780872343, 12.974385106143384]}}, {"type": "Feature", "properties": {"norad_id": 37069, "name": "FENGYUN 1C DEB", "group": "fengyun-1c-debris", "lat": 55.78709721453457, "lon": 139.1084925290741, "alt_km": 1418.1864728403198, "timestamp": "2025-12-01T03:58:50.103793+00:00", "meta": {"OBJECT_NAME": "FENGYUN 1C DEB", "OBJECT_ID": "1999-025EFD", "EPOCH": "2025-11-28T16:06:15.972480", "MEAN_MOTION": 13.37875406, "ECCENTRICITY": 0.0426586, "INCLINATION": 95.8475, "RA_OF_ASC_NODE": 308.9975, "ARG_OF_PERICENTER": 294.4722, "MEAN_ANOMALY": 61.249, "EPHEMERIS_TYPE": 0, "CLASSIFICATION_TYPE": "U", "NORAD_CAT_ID": 37069, "ELEMENT_SET_NO": 999, "REV_AT_EPOCH": 87520, "BSTAR": 0.0036837011, "MEAN_MOTION_DOT": 3.263e-05, "MEAN_MOTION_DDOT": 0, "GROUP": "fengyun-1c-debris"}, "tle": {"line1": "1 37069U 99025EFD 25332.67101820  .00003263  00000+0  36837-2 0  9992", "line2": "2 37069  95.8475 308.9975 0426586 294.4722  61.2490 13.37875406875205"}}, "geometry": {"type": "Point", "coordinates": [139.1084925290741, 55.78709721453457]}}]}